{
  "type": "FeatureCollection",
  "features": [
    {
      "type": "Feature",
      "properties": {
        "norad_id": 39160,
        "name": "VNREDSAT 1",
        "group": "resource",
        "lat": 65.5107238873932,
        "lon": -121.62739387890943,
        "alt_km": 670.1824963605641,
        "timestamp": "2025-12-11T05:00:25.967988+00:00",
        "meta_object_name": "VNREDSAT 1",
        "meta_object_id": "2013-021B",
        "meta_epoch": "2025-12-10T21:56:06.728064",
        "meta_mean_motion": 14.64917023,
        "meta_eccentricity": 0.00013284,
        "meta_inclination": 97.9372,
        "meta_ra_of_asc_node": 40.2524,
        "meta_arg_of_pericenter": 79.2225,
        "meta_mean_anomaly": 280.9128,
        "meta_ephemeris_type": 0,
        "meta_classification_type": "U",
        "meta_norad_cat_id": 39160,
        "meta_element_set_no": 999,
        "meta_rev_at_epoch": 67272,
        "meta_bstar": 0.0001404342,
        "meta_mean_motion_dot": 7.05e-06,
        "meta_mean_motion_ddot": 0,
        "tle_line1": "1 39160U 13021B   25344.91396676  .00000705  00000+0  14043-3 0  9997",
        "tle_line2": "2 39160  97.9372  40.2524 0001328  79.2225 280.9128 14.64917023672727"
      },
      "geometry": {
        "type": "Point",
        "coordinates": [
          -121.62739387890943,
          65.5107238873932
        ]
      }
    },
    {
      "type": "Feature",
      "properties": {
        "norad_id": 39227,
        "name": "ARIRANG-5 (KOMPSAT-5)",
        "group": "resource",
        "lat": -26.128462441055277,
        "lon": 173.29728931994853,
        "alt_km": 558.5912018283034,
        "timestamp": "2025-12-11T05:00:25.967998+00:00",
        "meta_object_name": "ARIRANG-5 (KOMPSAT-5)",
        "meta_object_id": "2013-042A",
        "meta_epoch": "2025-12-10T22:44:21.473664",
        "meta_mean_motion": 15.0449286,
        "meta_eccentricity": 0.0003811,
        "meta_inclination": 97.6144,
        "meta_ra_of_asc_node": 169.2776,
        "meta_arg_of_pericenter": 60.0933,
        "meta_mean_anomaly": 300.0672,
        "meta_ephemeris_type": 0,
        "meta_classification_type": "U",
        "meta_norad_cat_id": 39227,
        "meta_element_set_no": 999,
        "meta_rev_at_epoch": 67555,
        "meta_bstar": 0.00024460337,
        "meta_mean_motion_dot": 3.364e-05,
        "meta_mean_motion_ddot": 0,
        "tle_line1": "1 39227U 13042A   25344.94747076  .00003364  00000+0  24460-3 0  9999",
        "tle_line2": "2 39227  97.6144 169.2776 0003811  60.0933 300.0672 15.04492860675553"
      },
      "geometry": {
        "type": "Point",
        "coordinates": [
          173.29728931994853,
          -26.128462441055277
        ]
      }
    },
    {
      "type": "Feature",
      "properties": {
        "norad_id": 39418,
        "name": "SKYSAT-A",
        "group": "resource",
        "lat": -51.43986674922846,
        "lon": 44.86082802662432,
        "alt_km": 532.4704744939163,
        "timestamp": "2025-12-11T05:00:25.968008+00:00",
        "meta_object_name": "SKYSAT-A",
        "meta_object_id": "2013-066C",
        "meta_epoch": "2025-12-10T21:17:36.207168",
        "meta_mean_motion": 15.1158201,
        "meta_eccentricity": 0.00206523,
        "meta_inclination": 97.4109,
        "meta_ra_of_asc_node": 35.1517,
        "meta_arg_of_pericenter": 243.3509,
        "meta_mean_anomaly": 116.5607,
        "meta_ephemeris_type": 0,
        "meta_classification_type": "U",
        "meta_norad_cat_id": 39418,
        "meta_element_set_no": 999,
        "meta_rev_at_epoch": 66002,
        "meta_bstar": 0.0003653129,
        "meta_mean_motion_dot": 6.168e-05,
        "meta_mean_motion_ddot": 0,
        "tle_line1": "1 39418U 13066C   25344.88722462  .00006168  00000+0  36531-3 0  9999",
        "tle_line2": "2 39418  97.4109  35.1517 0020652 243.3509 116.5607 15.11582010660024"
      },
      "geometry": {
        "type": "Point",
        "coordinates": [
          44.86082802662432,
          -51.43986674922846
        ]
      }
    },
    {
      "type": "Feature",
      "properties": {
        "norad_id": 39419,
        "name": "DUBAISAT-2",
        "group": "resource",
        "lat": 70.68978354844488,
        "lon": 177.57729569480475,
        "alt_km": 540.3274656189178,
        "timestamp": "2025-12-11T05:00:25.968019+00:00",
        "meta_object_name": "DUBAISAT-2",
        "meta_object_id": "2013-066D",
        "meta_epoch": "2025-12-10T22:09:44.049600",
        "meta_mean_motion": 15.08331145,
        "meta_eccentricity": 0.00108644,
        "meta_inclination": 97.4455,
        "meta_ra_of_asc_node": 335.3864,
        "meta_arg_of_pericenter": 327.564,
        "meta_mean_anomaly": 32.4919,
        "meta_ephemeris_type": 0,
        "meta_classification_type": "U",
        "meta_norad_cat_id": 39419,
        "meta_element_set_no": 999,
        "meta_rev_at_epoch": 65799,
        "meta_bstar": 0.00056924319,
        "meta_mean_motion_dot": 8.791e-05,
        "meta_mean_motion_ddot": 0,
        "tle_line1": "1 39419U 13066D   25344.92342650  .00008791  00000+0  56924-3 0  9994",
        "tle_line2": "2 39419  97.4455 335.3864 0010864 327.5640  32.4919 15.08331145657995"
      },
      "geometry": {
        "type": "Point",
        "coordinates": [
          177.57729569480475,
          70.68978354844488
        ]
      }
    },
    {
      "type": "Feature",
      "properties": {
        "norad_id": 39574,
        "name": "GPM-CORE",
        "group": "resource",
        "lat": 37.43690813046358,
        "lon": -121.23809588583116,
        "alt_km": 431.0126868567795,
        "timestamp": "2025-12-11T05:00:25.968029+00:00",
        "meta_object_name": "GPM-CORE",
        "meta_object_id": "2014-009C",
        "meta_epoch": "2025-12-10T16:24:04.665312",
        "meta_mean_motion": 15.45486984,
        "meta_eccentricity": 0.00105076,
        "meta_inclination": 64.9737,
        "meta_ra_of_asc_node": 219.5648,
        "meta_arg_of_pericenter": 270.4002,
        "meta_mean_anomaly": 89.5935,
        "meta_ephemeris_type": 0,
        "meta_classification_type": "U",
        "meta_norad_cat_id": 39574,
        "meta_element_set_no": 999,
        "meta_rev_at_epoch": 66869,
        "meta_bstar": 0.00036587407,
        "meta_mean_motion_dot": 0.00017462,
        "meta_mean_motion_ddot": 0,
        "tle_line1": "1 39574U 14009C   25344.68338733  .00017462  00000+0  36587-3 0  9992",
        "tle_line2": "2 39574  64.9737 219.5648 0010507 270.4002  89.5935 15.45486984668697"
      },
      "geometry": {
        "type": "Point",
        "coordinates": [
          -121.23809588583116,
          37.43690813046358
        ]
      }
    },
    {
      "type": "Feature",
      "properties": {
        "norad_id": 39634,
        "name": "SENTINEL-1A",
        "group": "resource",
        "lat": 5.454548069717848,
        "lon": -10.314917472484522,
        "alt_km": 697.8304945313839,
        "timestamp": "2025-12-11T05:00:25.968039+00:00",
        "meta_object_name": "SENTINEL-1A",
        "meta_object_id": "2014-016A",
        "meta_epoch": "2025-12-11T00:02:41.587872",
        "meta_mean_motion": 14.59198454,
        "meta_eccentricity": 0.00012405,
        "meta_inclination": 98.1804,
        "meta_ra_of_asc_node": 350.2684,
        "meta_arg_of_pericenter": 84.5386,
        "meta_mean_anomaly": 275.5955,
        "meta_ephemeris_type": 0,
        "meta_classification_type": "U",
        "meta_norad_cat_id": 39634,
        "meta_element_set_no": 999,
        "meta_rev_at_epoch": 62257,
        "meta_bstar": -5.5671958e-05,
        "meta_mean_motion_dot": -3.08e-06,
        "meta_mean_motion_ddot": 0,
        "tle_line1": "1 39634U 14016A   25345.00187023 -.00000308  00000+0 -55672-4 0  9998",
        "tle_line2": "2 39634  98.1804 350.2684 0001240  84.5386 275.5955 14.59198454622576"
      },
      "geometry": {
        "type": "Point",
        "coordinates": [
          -10.314917472484522,
          5.454548069717848
        ]
      }
    },
    {
      "type": "Feature",
      "properties": {
        "norad_id": 39731,
        "name": "KAZEOSAT 1",
        "group": "resource",
        "lat": 72.38937909471156,
        "lon": 29.61320304762596,
        "alt_km": 743.9872430713604,
        "timestamp": "2025-12-11T05:00:25.968049+00:00",
        "meta_object_name": "KAZEOSAT 1",
        "meta_object_id": "2014-024A",
        "meta_epoch": "2025-12-10T22:00:08.375904",
        "meta_mean_motion": 14.42060439,
        "meta_eccentricity": 0.00010922,
        "meta_inclination": 98.3432,
        "meta_ra_of_asc_node": 56.8646,
        "meta_arg_of_pericenter": 94.6552,
        "meta_mean_anomaly": 265.4763,
        "meta_ephemeris_type": 0,
        "meta_classification_type": "U",
        "meta_norad_cat_id": 39731,
        "meta_element_set_no": 999,
        "meta_rev_at_epoch": 61142,
        "meta_bstar": 9.9836686e-05,
        "meta_mean_motion_dot": 2.85e-06,
        "meta_mean_motion_ddot": 0,
        "tle_line1": "1 39731U 14024A   25344.91676361  .00000285  00000+0  99837-4 0  9995",
        "tle_line2": "2 39731  98.3432  56.8646 0001092  94.6552 265.4763 14.42060439611422"
      },
      "geometry": {
        "type": "Point",
        "coordinates": [
          29.61320304762596,
          72.38937909471156
        ]
      }
    }
  ]
}